KUIPER-00104            
1 65142U 25171L   25294.58336806  .00004468  00000+0  15627-3 0  9990
2 65142  51.8785  61.8968 0005446  12.2120  38.0714 15.31555346  5162
KUIPER-00105            
1 65143U 25171M   25294.58336806 -.00920971  00000+0 -55890-1 0  9993
2 65143  51.8966  63.8482 0010740 354.5023  96.1850 15.12778345  5413
KUIPER-00106            
1 65144U 25171N   25294.58336806 -.00994216  00000+0 -84141-1 0  9998
2 65144  51.9011  66.5531 0008522 358.4937 166.4415 15.00357768  4914
KUIPER-00107            
1 65145U 25171P   25294.61882916  .00059165  00000+0  15699-2 0  9997
2 65145  51.8761  61.4594 0005119  21.6917 338.4286 15.37723264 12188
KUIPER-00108            
1 65146U 25171Q   25294.58336806 -.00679705  00000+0 -27345-1 0  9996
2 65146  51.8826  62.2733 0006939  33.7151 176.7659 15.26909438  3757
KUIPER-00109            
1 65147U 25171R   25294.58336806 -.00260818  00000+0 -76544-2 0  9994
2 65147  51.8771  61.5337 0007581   7.5155 206.2219 15.35621981  5124
KUIPER-00110            
1 65148U 25171S   25294.58336806 -.00007681  00000+0 -51108-3 0  9992
2 65148  51.8876  65.1073 0010043   6.0512 170.6663 15.05308195  5321
KUIPER-00111            
1 65149U 25171T   25294.58336806 -.00061289  00000+0 -65701-2 0  9990
2 65149  51.8966  68.4221 0008589  29.9538  35.6948 14.88427149  5683
